{
  "type": "FeatureCollection",
  "features": [
    {
      "type": "Feature",
      "properties": {
        "norad_id": 66909,
        "name": "SILVERSAT",
        "group": "stations",
        "lat": 10.372555337423337,
        "lon": -103.98453113486322,
        "alt_km": 408.4656950952667,
        "timestamp": "2025-12-24T09:46:29.749744+00:00",
        "meta_object_name": "SILVERSAT",
        "meta_object_id": "1998-067XV",
        "meta_epoch": "2025-12-23T06:48:27.239040",
        "meta_mean_motion": 15.53013948,
        "meta_eccentricity": 0.00038718,
        "meta_inclination": 51.6305,
        "meta_ra_of_asc_node": 89.9502,
        "meta_arg_of_pericenter": 293.696,
        "meta_mean_anomaly": 66.3623,
        "meta_ephemeris_type": 0,
        "meta_classification_type": "U",
        "meta_norad_cat_id": 66909,
        "meta_element_set_no": 999,
        "meta_rev_at_epoch": 325,
        "meta_bstar": 0.0011375182,
        "meta_mean_motion_dot": 0.00072516,
        "meta_mean_motion_ddot": 0,
        "tle_line1": "1 66909U 98067XV  25357.28364860  .00072516  00000+0  11375-2 0  9998",
        "tle_line2": "2 66909  51.6305  89.9502 0003871 293.6960  66.3623 15.53013948  3254"
      },
      "geometry": {
        "type": "Point",
        "coordinates": [
          -103.98453113486322,
          10.372555337423337
        ]
      }
    },
    {
      "type": "Feature",
      "properties": {
        "norad_id": 66910,
        "name": "1998-067XW",
        "group": "stations",
        "lat": 2.984866142344613,
        "lon": -98.03403705167803,
        "alt_km": 408.14197289897584,
        "timestamp": "2025-12-24T09:46:29.749756+00:00",
        "meta_object_name": "1998-067XW",
        "meta_object_id": "1998-067XW",
        "meta_epoch": "2025-12-23T11:23:56.481792",
        "meta_mean_motion": 15.5298943,
        "meta_eccentricity": 0.00039882,
        "meta_inclination": 51.6309,
        "meta_ra_of_asc_node": 88.9767,
        "meta_arg_of_pericenter": 265.4983,
        "meta_mean_anomaly": 94.5551,
        "meta_ephemeris_type": 0,
        "meta_classification_type": "U",
        "meta_norad_cat_id": 66910,
        "meta_element_set_no": 999,
        "meta_rev_at_epoch": 328,
        "meta_bstar": 0.00097986031,
        "meta_mean_motion_dot": 0.00062264,
        "meta_mean_motion_ddot": 0,
        "tle_line1": "1 66910U 98067XW  25357.47495928  .00062264  00000+0  97986-3 0  9993",
        "tle_line2": "2 66910  51.6309  88.9767 0003988 265.4983  94.5551 15.52989430  3286"
      },
      "geometry": {
        "type": "Point",
        "coordinates": [
          -98.03403705167803,
          2.984866142344613
        ]
      }
    },
    {
      "type": "Feature",
      "properties": {
        "norad_id": 66911,
        "name": "1998-067XX",
        "group": "stations",
        "lat": -12.700732181083819,
        "lon": -85.42034754991494,
        "alt_km": 408.12374288251067,
        "timestamp": "2025-12-24T09:46:29.749767+00:00",
        "meta_object_name": "1998-067XX",
        "meta_object_id": "1998-067XX",
        "meta_epoch": "2025-12-23T23:40:14.947968",
        "meta_mean_motion": 15.53537628,
        "meta_eccentricity": 0.0003645,
        "meta_inclination": 51.6309,
        "meta_ra_of_asc_node": 86.3921,
        "meta_arg_of_pericenter": 276.926,
        "meta_mean_anomaly": 83.1316,
        "meta_ephemeris_type": 0,
        "meta_classification_type": "U",
        "meta_norad_cat_id": 66911,
        "meta_element_set_no": 999,
        "meta_rev_at_epoch": 335,
        "meta_bstar": 0.0011221,
        "meta_mean_motion_dot": 0.00072904,
        "meta_mean_motion_ddot": 0,
        "tle_line1": "1 66911U 98067XX  25357.98628412  .00072904  00000+0  11221-2 0  9995",
        "tle_line2": "2 66911  51.6309  86.3921 0003645 276.9260  83.1316 15.53537628  3356"
      },
      "geometry": {
        "type": "Point",
        "coordinates": [
          -85.42034754991494,
          -12.700732181083819
        ]
      }
    },
    {
      "type": "Feature",
      "properties": {
        "norad_id": 66912,
        "name": "1998-067XY",
        "group": "stations",
        "lat": 38.39589454680934,
        "lon": -134.45595056439626,
        "alt_km": 407.44496287335824,
        "timestamp": "2025-12-24T09:46:29.749777+00:00",
        "meta_object_name": "1998-067XY",
        "meta_object_id": "1998-067XY",
        "meta_epoch": "2025-12-23T06:57:34.859520",
        "meta_mean_motion": 15.52133019,
        "meta_eccentricity": 0.00038791,
        "meta_inclination": 51.6317,
        "meta_ra_of_asc_node": 89.9922,
        "meta_arg_of_pericenter": 281.5198,
        "meta_mean_anomaly": 78.5356,
        "meta_ephemeris_type": 0,
        "meta_classification_type": "U",
        "meta_norad_cat_id": 66912,
        "meta_element_set_no": 999,
        "meta_rev_at_epoch": 324,
        "meta_bstar": 0.00084098106,
        "meta_mean_motion_dot": 0.00051669,
        "meta_mean_motion_ddot": 0,
        "tle_line1": "1 66912U 98067XY  25357.28998680  .00051669  00000+0  84098-3 0  9994",
        "tle_line2": "2 66912  51.6317  89.9922 0003879 281.5198  78.5356 15.52133019  3242"
      },
      "geometry": {
        "type": "Point",
        "coordinates": [
          -134.45595056439626,
          38.39589454680934
        ]
      }
    }
  ]
}